SHIYAN-24C 01           
1 58650U 23206A   26068.89348774  .00002076  00000+0  18089-3 0  9992
2 58650  97.3976  41.7846 0003675 132.3262 227.8273 14.97903598120444
STARLINK-33943          
1 63884U 25094W   26068.86345958  .00012774  00000+0  10760-2 0  9995
2 63884  70.0014 233.8376 0003131 269.1852  90.8948 14.98344036 47232
